STARLINK-3524           
1 51721U 22016H   25236.13531406 -.00001134  00000+0 -53176-4 0  9994
2 51721  53.2181 135.9881 0001568 103.5234 256.5933 15.08838506193607
STARLINK-3535           
1 51722U 22016J   25236.11963222 -.00001940  00000+0 -10386-3 0  9998
2 51722  53.2179 136.0485 0001458  85.8703 274.2456 15.08832680193590
STARLINK-3529           
1 51724U 22016L   25236.11227340  .00000152  00000+0  27657-4 0  9996
2 51724  53.2170 136.0801 0001369  90.3584 269.7565 15.08841356193594
STARLINK-3522           
1 51725U 22016M   25236.12331913  .00002568  00000+0  17941-3 0  9997
2 51725  53.2175 136.0331 0001214  91.1677 268.9454 15.08829347193593
STARLINK-3527           
1 51726U 22016N   25236.02119277  .00000462  00000+0  47095-4 0  9999
2 51726  53.2171 126.4900 0001341  88.9330 271.1815 15.08842147193721
STARLINK-3532           
1 51727U 22016P   25236.51339558  .00000409  00000+0  43783-4 0  9991
2 51727  53.2168 134.2804 0001395  83.3084 276.8067 15.08839908193656
STARLINK-3523           
1 51729U 22016R   25236.42230999  .00000082  00000+0  23222-4 0  9995
2 51729  53.2167 124.6892 0001465  83.6333 276.4826 15.08846125193787
STARLINK-3514           
1 51731U 22016T   25236.41495170  .00000174  00000+0  29026-4 0  9991
2 51731  53.2174 124.7218 0001440  86.3959 273.7198 15.08843717193784
STARLINK-3518           
1 51732U 22016U   25236.00276792  .00002838  00000+0  19621-3 0  9992
2 51732  53.2180 126.5753 0001419  93.4683 266.6472 15.08860056194866
STARLINK-3525           
1 51733U 22016V   25236.40857609 -.00003161  00000+0 -18075-3 0  9993
2 51733  53.2164 124.7619 0001626  84.2360 275.8817 15.08812534193783
STARLINK-3450           
1 51734U 22016W   25236.38922919 -.00003240  00000+0 -18569-3 0  9994
2 51734  53.2173 124.8384 0001487  93.0406 267.0756 15.08810878193771
STARLINK-3517           
1 51735U 22016X   25236.39657114 -.00000389  00000+0 -63324-5 0  9990
2 51735  53.2176 124.8067 0001314  96.9584 263.1558 15.08824048193783
STARLINK-3447           
1 51736U 22016Y   25236.39015942  .00000188  00000+0  29872-4 0  9992
2 51736  53.2173 124.9229 0001355  94.7042 265.4105 15.08840666193778
STARLINK-3509           
1 51737U 22016Z   25236.39287859 -.00000663  00000+0 -23554-4 0  9992
2 51737  53.2176 124.8227 0001443  91.7450 268.3707 15.08835971193770
STARLINK-3515           
1 51738U 22016AA  25235.97702907  .00000193  00000+0  30242-4 0  9990
2 51738  53.2164 126.6876 0001243  84.6702 275.4432 15.08840952193710
STARLINK-3516           
1 51739U 22016AB  25236.38551430 -.00000116  00000+0  10794-4 0  9996
2 51739  53.2171 124.8541 0001354  89.6981 270.4166 15.08837534193772
