[{"OBJECT_NAME":"STARLINK-3524","OBJECT_ID":"2022-016H","EPOCH":"2025-08-24T03:14:51.134784","MEAN_MOTION":15.08838506,"ECCENTRICITY":0.00015686,"INCLINATION":53.2181,"RA_OF_ASC_NODE":135.9881,"ARG_OF_PERICENTER":103.5234,"MEAN_ANOMALY":256.5933,"EPHEMERIS_TYPE":0,"CLASSIFICATION_TYPE":"U","NORAD_CAT_ID":51721,"ELEMENT_SET_NO":999,"REV_AT_EPOCH":19360,"BSTAR":-5.3175659e-5,"MEAN_MOTION_DOT":-1.134e-5,"MEAN_MOTION_DDOT":0},{"OBJECT_NAME":"STARLINK-3535","OBJECT_ID":"2022-016J","EPOCH":"2025-08-24T02:52:16.223808","MEAN_MOTION":15.0883268,"ECCENTRICITY":0.00014581,"INCLINATION":53.2179,"RA_OF_ASC_NODE":136.0485,"ARG_OF_PERICENTER":85.8703,"MEAN_ANOMALY":274.2456,"EPHEMERIS_TYPE":0,"CLASSIFICATION_TYPE":"U","NORAD_CAT_ID":51722,"ELEMENT_SET_NO":999,"REV_AT_EPOCH":19359,"BSTAR":-0.00010385645,"MEAN_MOTION_DOT":-1.94e-5,"MEAN_MOTION_DDOT":0},{"OBJECT_NAME":"STARLINK-3529","OBJECT_ID":"2022-016L","EPOCH":"2025-08-24T02:41:40.421760","MEAN_MOTION":15.08841356,"ECCENTRICITY":0.00013698,"INCLINATION":53.217,"RA_OF_ASC_NODE":136.0801,"ARG_OF_PERICENTER":90.3584,"MEAN_ANOMALY":269.7565,"EPHEMERIS_TYPE":0,"CLASSIFICATION_TYPE":"U","NORAD_CAT_ID":51724,"ELEMENT_SET_NO":999,"REV_AT_EPOCH":19359,"BSTAR":2.7656702e-5,"MEAN_MOTION_DOT":1.52e-6,"MEAN_MOTION_DDOT":0},{"OBJECT_NAME":"STARLINK-3522","OBJECT_ID":"2022-016M","EPOCH":"2025-08-24T02:57:34.772832","MEAN_MOTION":15.08829347,"ECCENTRICITY":0.00012144,"INCLINATION":53.2175,"RA_OF_ASC_NODE":136.0331,"ARG_OF_PERICENTER":91.1677,"MEAN_ANOMALY":268.9454,"EPHEMERIS_TYPE":0,"CLASSIFICATION_TYPE":"U","NORAD_CAT_ID":51725,"ELEMENT_SET_NO":999,"REV_AT_EPOCH":19359,"BSTAR":0.00017941365,"MEAN_MOTION_DOT":2.568e-5,"MEAN_MOTION_DDOT":0},{"OBJECT_NAME":"STARLINK-3527","OBJECT_ID":"2022-016N","EPOCH":"2025-08-24T00:30:31.055328","MEAN_MOTION":15.08842147,"ECCENTRICITY":0.00013413,"INCLINATION":53.2171,"RA_OF_ASC_NODE":126.49,"ARG_OF_PERICENTER":88.933,"MEAN_ANOMALY":271.1815,"EPHEMERIS_TYPE":0,"CLASSIFICATION_TYPE":"U","NORAD_CAT_ID":51726,"ELEMENT_SET_NO":999,"REV_AT_EPOCH":19372,"BSTAR":4.709516e-5,"MEAN_MOTION_DOT":4.62e-6,"MEAN_MOTION_DDOT":0},{"OBJECT_NAME":"STARLINK-3532","OBJECT_ID":"2022-016P","EPOCH":"2025-08-24T12:19:17.378112","MEAN_MOTION":15.08839908,"ECCENTRICITY":0.00013955,"INCLINATION":53.2168,"RA_OF_ASC_NODE":134.2804,"ARG_OF_PERICENTER":83.3084,"MEAN_ANOMALY":276.8067,"EPHEMERIS_TYPE":0,"CLASSIFICATION_TYPE":"U","NORAD_CAT_ID":51727,"ELEMENT_SET_NO":999,"REV_AT_EPOCH":19365,"BSTAR":4.3783291e-5,"MEAN_MOTION_DOT":4.09e-6,"MEAN_MOTION_DDOT":0},{"OBJECT_NAME":"STARLINK-3523","OBJECT_ID":"2022-016R","EPOCH":"2025-08-24T10:08:07.583136","MEAN_MOTION":15.08846125,"ECCENTRICITY":0.00014654,"INCLINATION":53.2167,"RA_OF_ASC_NODE":124.6892,"ARG_OF_PERICENTER":83.6333,"MEAN_ANOMALY":276.4826,"EPHEMERIS_TYPE":0,"CLASSIFICATION_TYPE":"U","NORAD_CAT_ID":51729,"ELEMENT_SET_NO":999,"REV_AT_EPOCH":19378,"BSTAR":2.3222304e-5,"MEAN_MOTION_DOT":8.2e-7,"MEAN_MOTION_DDOT":0},{"OBJECT_NAME":"STARLINK-3514","OBJECT_ID":"2022-016T","EPOCH":"2025-08-24T09:57:31.826880","MEAN_MOTION":15.08843717,"ECCENTRICITY":0.00014401,"INCLINATION":53.2174,"RA_OF_ASC_NODE":124.7218,"ARG_OF_PERICENTER":86.3959,"MEAN_ANOMALY":273.7198,"EPHEMERIS_TYPE":0,"CLASSIFICATION_TYPE":"U","NORAD_CAT_ID":51731,"ELEMENT_SET_NO":999,"REV_AT_EPOCH":19378,"BSTAR":2.9025737e-5,"MEAN_MOTION_DOT":1.74e-6,"MEAN_MOTION_DDOT":0},{"OBJECT_NAME":"STARLINK-3518","OBJECT_ID":"2022-016U","EPOCH":"2025-08-24T00:03:59.148288","MEAN_MOTION":15.08860056,"ECCENTRICITY":0.00014194,"INCLINATION":53.218,"RA_OF_ASC_NODE":126.5753,"ARG_OF_PERICENTER":93.4683,"MEAN_ANOMALY":266.6472,"EPHEMERIS_TYPE":0,"CLASSIFICATION_TYPE":"U","NORAD_CAT_ID":51732,"ELEMENT_SET_NO":999,"REV_AT_EPOCH":19486,"BSTAR":0.00019621464,"MEAN_MOTION_DOT":2.838e-5,"MEAN_MOTION_DDOT":0},{"OBJECT_NAME":"STARLINK-3525","OBJECT_ID":"2022-016V","EPOCH":"2025-08-24T09:48:20.974176","MEAN_MOTION":15.08812534,"ECCENTRICITY":0.00016262,"INCLINATION":53.2164,"RA_OF_ASC_NODE":124.7619,"ARG_OF_PERICENTER":84.236,"MEAN_ANOMALY":275.8817,"EPHEMERIS_TYPE":0,"CLASSIFICATION_TYPE":"U","NORAD_CAT_ID":51733,"ELEMENT_SET_NO":999,"REV_AT_EPOCH":19378,"BSTAR":-0.00018074965,"MEAN_MOTION_DOT":-3.161e-5,"MEAN_MOTION_DDOT":0},{"OBJECT_NAME":"STARLINK-3450","OBJECT_ID":"2022-016W","EPOCH":"2025-08-24T09:20:29.402016","MEAN_MOTION":15.08810878,"ECCENTRICITY":0.00014878,"INCLINATION":53.2173,"RA_OF_ASC_NODE":124.8384,"ARG_OF_PERICENTER":93.0406,"MEAN_ANOMALY":267.0756,"EPHEMERIS_TYPE":0,"CLASSIFICATION_TYPE":"U","NORAD_CAT_ID":51734,"ELEMENT_SET_NO":999,"REV_AT_EPOCH":19377,"BSTAR":-0.00018568647,"MEAN_MOTION_DOT":-3.24e-5,"MEAN_MOTION_DDOT":0},{"OBJECT_NAME":"STARLINK-3517","OBJECT_ID":"2022-016X","EPOCH":"2025-08-24T09:31:03.746496","MEAN_MOTION":15.08824048,"ECCENTRICITY":0.00013147,"INCLINATION":53.2176,"RA_OF_ASC_NODE":124.8067,"ARG_OF_PERICENTER":96.9584,"MEAN_ANOMALY":263.1558,"EPHEMERIS_TYPE":0,"CLASSIFICATION_TYPE":"U","NORAD_CAT_ID":51735,"ELEMENT_SET_NO":999,"REV_AT_EPOCH":19378,"BSTAR":-6.33237e-6,"MEAN_MOTION_DOT":-3.89e-6,"MEAN_MOTION_DDOT":0},{"OBJECT_NAME":"STARLINK-3447","OBJECT_ID":"2022-016Y","EPOCH":"2025-08-24T09:21:49.773888","MEAN_MOTION":15.08840666,"ECCENTRICITY":0.00013551,"INCLINATION":53.2173,"RA_OF_ASC_NODE":124.9229,"ARG_OF_PERICENTER":94.7042,"MEAN_ANOMALY":265.4105,"EPHEMERIS_TYPE":0,"CLASSIFICATION_TYPE":"U","NORAD_CAT_ID":51736,"ELEMENT_SET_NO":999,"REV_AT_EPOCH":19377,"BSTAR":2.9871645e-5,"MEAN_MOTION_DOT":1.88e-6,"MEAN_MOTION_DDOT":0},{"OBJECT_NAME":"STARLINK-3509","OBJECT_ID":"2022-016Z","EPOCH":"2025-08-24T09:25:44.710176","MEAN_MOTION":15.08835971,"ECCENTRICITY":0.00014435,"INCLINATION":53.2176,"RA_OF_ASC_NODE":124.8227,"ARG_OF_PERICENTER":91.745,"MEAN_ANOMALY":268.3707,"EPHEMERIS_TYPE":0,"CLASSIFICATION_TYPE":"U","NORAD_CAT_ID":51737,"ELEMENT_SET_NO":999,"REV_AT_EPOCH":19377,"BSTAR":-2.3553567e-5,"MEAN_MOTION_DOT":-6.63e-6,"MEAN_MOTION_DDOT":0},{"OBJECT_NAME":"STARLINK-3515","OBJECT_ID":"2022-016AA","EPOCH":"2025-08-23T23:26:55.311648","MEAN_MOTION":15.08840952,"ECCENTRICITY":0.00012435,"INCLINATION":53.2164,"RA_OF_ASC_NODE":126.6876,"ARG_OF_PERICENTER":84.6702,"MEAN_ANOMALY":275.4432,"EPHEMERIS_TYPE":0,"CLASSIFICATION_TYPE":"U","NORAD_CAT_ID":51738,"ELEMENT_SET_NO":999,"REV_AT_EPOCH":19371,"BSTAR":3.0241802e-5,"MEAN_MOTION_DOT":1.93e-6,"MEAN_MOTION_DDOT":0},{"OBJECT_NAME":"STARLINK-3516","OBJECT_ID":"2022-016AB","EPOCH":"2025-08-24T09:15:08.435520","MEAN_MOTION":15.08837534,"ECCENTRICITY":0.00013543,"INCLINATION":53.2171,"RA_OF_ASC_NODE":124.8541,"ARG_OF_PERICENTER":89.6981,"MEAN_ANOMALY":270.4166,"EPHEMERIS_TYPE":0,"CLASSIFICATION_TYPE":"U","NORAD_CAT_ID":51739,"ELEMENT_SET_NO":999,"REV_AT_EPOCH":19377,"BSTAR":1.0794022e-5,"MEAN_MOTION_DOT":-1.16e-6,"MEAN_MOTION_DDOT":0}]
